HELIOS 2A               
1 28492U 04049A   22363.36756893  .00001895  00000+0  18458-3 0  9996
2 28492  98.2586 315.7812 0014661 156.6757 203.5170 14.93738251964210
SPIRALE A               
1 33751U 09008C   22363.46010273  .00000207  00000+0  65314-3 0  9995
2 33751   2.1054  69.6871 5460863 255.0597  40.7496  4.58898411203772
SPIRALE B               
1 33752U 09008D   22363.21410754  .00001895  00000+0  87880-3 0  9993
2 33752   2.2021  12.8548 6835954 358.3830   0.2304  2.83570806130593
SAPPHIRE                
1 39088U 13009C   22363.53331536  .00000123  00000+0  58851-4 0  9992
2 39088  98.4156 194.3438 0012358  59.8729 300.3679 14.34355825515081
